#aV2016  2 18  0  0  0.00000000     288 DD+AD WGS84 FIT  NGA
## 1884 345600.00000000   300.00000000 57436 0.0000000000000
+   30     1  2  3  5  6  7  8  9 10 11 12 13 14 15 16 17 18
+         19 20 21 22 23 24 25 26 27 28 29 30 31  0  0  0  0
+          0  0  0  0  0  0  0  0  0  0  0  0  0  0  0  0  0
+          0  0  0  0  0  0  0  0  0  0  0  0  0  0  0  0  0
+          0  0  0  0  0  0  0  0  0  0  0  0  0  0  0  0  0
++         2  2  2  2  2  2  2  2  2  2  2  2  2  2  2  2  2
++         2  2  2  2  2  2  2  2  2  2  2  2  2  0  0  0  0
++         0  0  0  0  0  0  0  0  0  0  0  0  0  0  0  0  0
++         0  0  0  0  0  0  0  0  0  0  0  0  0  0  0  0  0
++         0  0  0  0  0  0  0  0  0  0  0  0  0  0  0  0  0
%c cc cc ccc ccc cccc cccc cccc cccc ccccc ccccc ccccc ccccc
%c cc cc ccc ccc cccc cccc cccc cccc ccccc ccccc ccccc ccccc
%f  0.0000000  0.000000000  0.00000000000  0.000000000000000
%f  0.0000000  0.000000000  0.00000000000  0.000000000000000
%i    0    0    0    0      0      0      0      0         0
%i    0    0    0    0      0      0      0      0         0
/*      NGA, ST. LOUIS,MO.                                  
/*   EPHEMERIS COMPUTED FROM 2 DAYS OF DATA                 
/*   EPOCHA v2.4 SMOOTHER                                   
/*   G1762 IERS2010 SATAF SATAPC                            
*  2016  2 18  8 15  0.00000000
P  1  22501.976525  14159.229602  -2311.262452     12.057551                    
V  1  -3685.808728    844.408577 -31506.676509      0.010188                    
P  2  -5130.912941 -18139.079570  19285.985857    599.537588                    
V  2  21660.902419   9280.611333  14402.276381     -0.000482                    
P  3  12994.809740  14662.081565  17928.337604    -26.037136                    
V  3   -973.741628  22811.031443 -17961.469400     -0.046804                    
P  5  -2553.777671 -26251.174548  -2108.454043   -145.040493                    
V  5   3318.242619  -2748.218734  31409.990247      0.034106                    
P  6  10003.233437 -11693.309787  21656.494684    147.327815                    
V  6  24039.034056  13293.430888  -3933.017388      0.059830                    
P  7  23384.054846   3573.704007 -12333.182729    469.111029                    
V  7  12695.490601   9447.585375  26145.053534     -0.016849                    
P  8   8537.410402  12541.777648 -21742.816352    -24.324356                    
V  8 -23497.828881  14748.556693   -699.623932     -0.014355                    
P  9  23628.075814  -5976.715745  10549.327096     73.067609                    
V  9 -10000.336064   9341.959157  27626.164551      0.076763                    
P 10 -11228.325701  17176.016655 -16823.769085     41.857373                    
V 10  -2548.035236 -21333.641481 -20120.297346     -0.049793                    
P 11  21102.817768  11991.628261 -11397.666744   -632.866255                    
V 11 -14204.617666   2035.441266 -25338.602602     -0.017458                    
P 12  -9990.571131 -18846.646988  15853.265308    368.856128                    
V 12   1643.042605 -20163.509593 -22555.475310      0.022548                    
P 13    954.758523 -16346.327184 -21068.729514   -186.071434                    
V 13  24153.110399 -10632.840283   9317.034921     -0.024878                    
P 14 -21032.359499  15186.643231   5562.775759      2.391212                    
V 14  -7263.987568    690.938646 -30875.142304     -0.022314                    
P 15 -13495.699314  -9591.483386 -20943.467353   -297.751094                    
V 15  21285.864057 -15578.256143  -6276.101327     -0.018160                    
P 16    147.872840  26287.049354  -1845.556633    -38.864480                    
V 16  -2264.260253   2166.324897  32557.721390      0.030796                    
P 17  21312.633149 -15164.588697   4280.304118   -200.857462                    
V 17   5601.986553   -309.262933 -31583.092750     -0.006435                    
P 18 -15310.857462   4657.992791 -20649.901673    484.740244                    
V 18  -2349.796015 -27516.023660  -4623.692403      0.039409                    
P 19  16753.927149 -17149.703892  11683.373127   -524.898812                    
V 19  14260.288324  -5001.270251 -26847.446603     -0.001238                    
P 20 -13404.776476 -17268.977382 -15204.340826    393.617126                    
V 20    597.779545 -19337.439242  21715.251249      0.026100                    
P 21 -22213.389056    288.712970 -14025.279768   -510.996390                    
V 21 -15722.950787 -11055.201420  23174.207344     -0.018349                    
P 22    551.324326  26437.617372  -1281.568947    395.291156                    
V 22  -4237.324431  -1670.590412 -30932.042873     -0.059652                    
P 23  18984.443578   3964.301887  18505.589551   -160.616105                    
V 23 -18857.623720  13307.473460  16217.245074     -0.018576                    
P 24 -21264.045374 -15187.591876  -5349.099951    -12.571248                    
V 24   7276.108915    496.103522 -30431.719231     -0.006885                    
P 25 -14543.260563  -5816.758888  21372.157566   -119.095075                    
V 25   -313.637779 -27305.144460  -7422.768624     -0.067281                    
P 26  -5188.336096  24546.818581   8658.436929   -259.191826                    
V 26  -3009.947653 -10903.247521  29155.885631     -0.155770                    
P 27  -2493.856745  17517.351780 -19780.209513     63.925113                    
V 27 -21917.183663  12272.592046  13793.809284      0.036091                    
P 28  11795.760943 -16148.157150 -16821.185305    503.242158                    
V 28    409.168999  22598.504407 -20688.745506      0.025528                    
P 29 -22941.694081   2333.801330  13156.524453    654.449894                    
V 29  13739.199125  -9624.883427  25739.992374      0.007453                    
P 30  17480.782050  -5186.999084 -19346.662589     97.701316                    
V 30  20028.051406  14259.109048  14197.455476      0.042526                    
P 31  -8377.980598  12484.782648  22013.270003    282.146998                    
V 31 -23917.147360 -13851.900048   -897.640384     -0.016798                    
EOF
